NORAD_CAT_ID,OBJECT_NAME,OBJECT_TYPE,EPOCH,MEAN_MOTION,ECCENTRICITY,INCLINATION,RA_OF_ASC_NODE,ARG_OF_PERICENTER,MEAN_ANOMALY,BSTAR,MEAN_MOTION_DOT,MEAN_MOTION_DDOT,TLE_LINE0,TLE_LINE1,TLE_LINE2,SEMIMAJOR_AXIS,PERIOD,APOGEE,PERIGEE,DECAYED
53589.0,STARLINK-4673,PAYLOAD,2023-05-11 11:22:33,15.08847542,9.04e-05,53.2146,202.4566,67.9223,292.1865,0.00027921,4.16e-05,0.0,0 STARLINK-4673,1 53589U 22104B   23131.47399336  .00004160  00000-0  27921-3 0  9998,2 53589  53.2146 202.4566 0000904  67.9223 292.1865 15.08847542 38941,6917.857,95.437,540.348,539.097,0.0
53589.0,STARLINK-4673,PAYLOAD,2023-05-12 00:05:38,15.08842939,5.89e-05,53.2147,200.0806,76.635,283.4708,0.0002312,3.394e-05,0.0,0 STARLINK-4673,1 53589U 22104B   23132.00391312  .00003394  00000-0  23120-3 0  9999,2 53589  53.2147 200.0806 0000589  76.6350 283.4708 15.08842939 40048,6917.871,95.437,540.144,539.329,0.0
53589.0,STARLINK-4673,PAYLOAD,2023-05-12 08:02:34,15.08832358,5.38e-05,53.214,198.5904,100.0338,260.0715,-3.3797e-05,-8.25e-06,0.0,0 STARLINK-4673,1 53589U 22104B   23132.33511691 -.00000825  00000-0 -33797-4 0  9999,2 53589  53.2140 198.5904 0000538 100.0338 260.0715 15.08832358 39077,6917.904,95.438,540.141,539.397,0.0
53589.0,STARLINK-4673,PAYLOAD,2023-05-13 09:28:43,15.08847337,6.83e-05,53.2145,193.8326,95.9256,264.1814,0.00014153,1.966e-05,0.0,0 STARLINK-4673,1 53589U 22104B   23133.39495070  .00001966  00000-0  14153-3 0  9997,2 53589  53.2145 193.8326 0000683  95.9256 264.1814 15.08847337 39236,6917.858,95.437,540.195,539.25,0.0
53589.0,STARLINK-4673,PAYLOAD,2023-05-14 12:30:17,15.0883377,6.88e-05,53.2139,188.7786,70.1851,289.9215,-2.7153e-05,-7.2e-06,0.0,0 STARLINK-4673,1 53589U 22104B   23134.52103984 -.00000720  00000-0 -27153-4 0  9997,2 53589  53.2139 188.7786 0000688  70.1851 289.9215 15.08833770 39408,6917.899,95.438,540.24,539.288,0.0
53589.0,STARLINK-4673,PAYLOAD,2023-05-14 14:05:41,15.08833667,6.55e-05,53.2145,188.4797,70.3827,289.7236,3.5389e-05,2.76e-06,0.0,0 STARLINK-4673,1 53589U 22104B   23134.58728349  .00000276  00000-0  35389-4 0  9995,2 53589  53.2145 188.4797 0000655  70.3827 289.7236 15.08833667 40434,6917.9,95.438,540.218,539.312,0.0
53589.0,STARLINK-4673,PAYLOAD,2023-05-14 20:27:13,15.08834601,7.2e-05,53.2151,187.2905,80.9969,279.1105,2.6784e-05,1.39e-06,0.0,0 STARLINK-4673,1 53589U 22104B   23134.85224357  .00000139  00000-0  26784-4 0  9992,2 53589  53.2151 187.2905 0000720  80.9969 279.1105 15.08834601 40477,6917.897,95.438,540.26,539.264,0.0
53589.0,STARLINK-4673,PAYLOAD,2023-05-15 10:45:41,15.08839574,8.07e-05,53.2149,184.6138,79.744,280.3643,0.0001099,1.462e-05,0.0,0 STARLINK-4673,1 53589U 22104B   23135.44839934  .00001462  00000-0  10990-3 0  9992,2 53589  53.2149 184.6138 0000807  79.7440 280.3643 15.08839574 40564,6917.882,95.438,540.305,539.188,0.0
53589.0,STARLINK-4673,PAYLOAD,2023-05-15 20:18:00,15.08837955,7.93e-05,53.215,182.8299,82.5331,277.5751,0.00010599,1.399e-05,0.0,0 STARLINK-4673,1 53589U 22104B   23135.84584084  .00001399  00000-0  10599-3 0  9993,2 53589  53.2150 182.8299 0000793  82.5331 277.5751 15.08837955 39601,6917.887,95.438,540.3,539.203,0.0
53589.0,STARLINK-4673,PAYLOAD,2023-05-16 10:36:29,15.08837808,8.53e-05,53.2148,180.1534,82.2643,277.8446,0.00012906,1.767e-05,0.0,0 STARLINK-4673,1 53589U 22104B   23136.44200286  .00001767  00000-0  12906-3 0  9992,2 53589  53.2148 180.1534 0000853  82.2643 277.8446 15.08837808 40716,6917.887,95.438,540.342,539.162,0.0
53589.0,STARLINK-4673,PAYLOAD,2023-05-16 20:08:47,15.08839995,8.61e-05,53.2148,178.3693,81.1368,278.9722,0.00012745,1.741e-05,0.0,0 STARLINK-4673,1 53589U 22104B   23136.83944168  .00001741  00000-0  12745-3 0  9992,2 53589  53.2148 178.3693 0000861  81.1368 278.9722 15.08839995 40776,6917.88,95.438,540.341,539.15,0.0
53589.0,STARLINK-4673,PAYLOAD,2023-05-17 02:30:20,15.08841673,8.78e-05,53.2147,177.1794,82.3474,277.7618,0.00012046,1.63e-05,0.0,0 STARLINK-4673,1 53589U 22104B   23137.10440101  .00001630  00000-0  12046-3 0  9992,2 53589  53.2147 177.1794 0000878  82.3474 277.7618 15.08841673 39790,6917.875,95.437,540.348,539.133,0.0
53589.0,STARLINK-4673,PAYLOAD,2023-05-17 19:59:34,15.08843182,8.93e-05,53.2149,173.9091,78.4917,281.6175,7.6535e-05,9.31e-06,0.0,0 STARLINK-4673,1 53589U 22104B   23137.83303909  .00000931  00000-0  76535-4 0  9993,2 53589  53.2149 173.9091 0000893  78.4917 281.6175 15.08843182 40927,6917.871,95.437,540.353,539.118,0.0
53589.0,STARLINK-4673,PAYLOAD,2023-05-18 11:53:26,15.08839417,9.16e-05,53.2148,170.9352,78.6918,281.4176,4.4776e-05,4.25e-06,0.0,0 STARLINK-4673,1 53589U 22104B   23138.49544167  .00000425  00000-0  44776-4 0  9999,2 53589  53.2148 170.9352 0000916  78.6918 281.4176 15.08839417 40006,6917.882,95.438,540.381,539.113,0.0
53589.0,STARLINK-4673,PAYLOAD,2023-05-18 13:28:49,15.08840389,9.21e-05,53.2149,170.6381,77.6445,282.465,5.0924e-05,5.23e-06,0.0,0 STARLINK-4673,1 53589U 22104B   23138.56168081  .00000523  00000-0  50924-4 0  9995,2 53589  53.2149 170.6381 0000921  77.6445 282.4650 15.08840389 41038,6917.879,95.438,540.381,539.107,0.0
53589.0,STARLINK-4673,PAYLOAD,2023-05-19 08:33:26,15.08840509,8.72e-05,53.215,167.0691,91.7095,268.3996,1.2129e-05,-9.5e-07,0.0,0 STARLINK-4673,1 53589U 22104B   23139.35656063 -.00000095  00000-0  12129-4 0  9995,2 53589  53.2150 167.0691 0000872  91.7095 268.3996 15.08840509 41150,6917.879,95.438,540.347,539.141,0.0
53589.0,STARLINK-4673,PAYLOAD,2023-05-20 02:02:41,15.08838235,8.71e-05,53.2151,163.7978,89.638,270.4712,5.4562e-05,5.81e-06,0.0,0 STARLINK-4673,1 53589U 22104B   23140.08520085  .00000581  00000-0  54562-4 0  9997,2 53589  53.2151 163.7978 0000871  89.6380 270.4712 15.08838235 40246,6917.886,95.438,540.353,539.148,0.0
53589.0,STARLINK-4673,PAYLOAD,2023-05-20 17:56:32,15.08841408,8.95e-05,53.2151,160.8241,87.6015,272.508,6.9842e-05,8.24e-06,0.0,0 STARLINK-4673,1 53589U 22104B   23140.74759925  .00000824  00000-0  69842-4 0  9994,2 53589  53.2151 160.8241 0000895  87.6015 272.5080 15.08841408 41367,6917.876,95.437,540.36,539.122,0.0
53589.0,STARLINK-4673,PAYLOAD,2023-05-21 06:39:37,15.08842091,9.2e-05,53.2155,158.4455,90.3874,269.7224,8.0578e-05,9.95e-06,0.0,0 STARLINK-4673,1 53589U 22104B   23141.27751861  .00000995  00000-0  80578-4 0  9992,2 53589  53.2155 158.4455 0000920  90.3874 269.7224 15.08842091 40427,6917.874,95.437,540.375,539.103,0.0
53589.0,STARLINK-4673,PAYLOAD,2023-05-21 11:25:46,15.08842351,9.22e-05,53.2154,157.5534,88.8406,271.2692,7.8338e-05,9.59e-06,0.0,0 STARLINK-4673,1 53589U 22104B   23141.47623835  .00000959  00000-0  78338-4 0  9994,2 53589  53.2154 157.5534 0000922  88.8406 271.2692 15.08842351 41471,6917.873,95.437,540.376,539.1,0.0
53589.0,STARLINK-4673,PAYLOAD,2023-05-21 17:47:19,15.08837002,0.0001005,53.2154,156.3611,72.5861,287.5241,3.3526e-05,2.46e-06,0.0,0 STARLINK-4673,1 53589U 22104B   23141.74120370  .00000246  00000-0  33526-4 0  9999,2 53589  53.2154 156.3611 0001005  72.5861 287.5241 15.08837002 40490,6917.89,95.438,540.45,539.059,0.0
53589.0,STARLINK-4673,PAYLOAD,2023-05-22 06:30:25,15.0883216,0.0001011,53.2156,153.984,86.3678,273.743,-1.9787e-05,-6.03e-06,0.0,0 STARLINK-4673,1 53589U 22104B   23142.27113019 -.00000603  00000-0 -19787-4 0  9992,2 53589  53.2156 153.9840 0001011  86.3678 273.7430 15.08832160 40571,6917.904,95.438,540.469,539.07,0.0
53589.0,STARLINK-4673,PAYLOAD,2023-05-22 08:05:48,15.08831195,9.93e-05,53.2155,153.6867,83.6842,276.4263,-2.9852e-05,-7.63e-06,0.0,0 STARLINK-4673,1 53589U 22104B   23142.33737132 -.00000763  00000-0 -29852-4 0  9998,2 53589  53.2155 153.6867 0000993  83.6842 276.4263 15.08831195 41603,6917.907,95.438,540.459,539.085,0.0
53589.0,STARLINK-4673,PAYLOAD,2023-05-22 17:38:07,15.08834213,0.0001017,53.2157,151.9024,83.8699,276.2409,1.3501e-06,-2.66e-06,0.0,0 STARLINK-4673,1 53589U 22104B   23142.73481009 -.00000266  00000-0  13501-5 0  9993,2 53589  53.2157 151.9024 0001017  83.8699 276.2409 15.08834213 41661,6917.898,95.438,540.467,539.06,0.0
53589.0,STARLINK-4673,PAYLOAD,2023-05-23 09:31:58,15.08837484,9.83e-05,53.2156,148.9287,83.059,277.0514,2.0047e-05,3.1e-07,0.0,0 STARLINK-4673,1 53589U 22104B   23143.39720906  .00000031  00000-0  20047-4 0  9999,2 53589  53.2156 148.9287 0000983  83.0590 277.0514 15.08837484 40747,6917.888,95.438,540.433,539.073,0.0
53589.0,STARLINK-4673,PAYLOAD,2023-05-24 09:22:45,15.08839619,8.39e-05,53.2155,144.4686,84.2595,275.8493,0.00012982,1.779e-05,0.0,0 STARLINK-4673,1 53589U 22104B   23144.39080628  .00001779  00000-0  12982-3 0  9998,2 53589  53.2155 144.4686 0000839  84.2595 275.8493 15.08839619 41912,6917.882,95.438,540.327,539.166,0.0
53589.0,STARLINK-4673,PAYLOAD,2023-05-26 04:18:10,15.08841841,9.15e-05,53.2158,136.4387,91.4238,268.6859,1.9948e-05,3e-07,0.0,0 STARLINK-4673,1 53589U 22104B   23146.17928695  .00000030  00000-0  19948-4 0  9990,2 53589  53.2158 136.4387 0000915  91.4238 268.6859 15.08841841 41166,6917.875,95.437,540.373,539.107,0.0
53589.0,STARLINK-4673,PAYLOAD,2023-05-26 09:04:19,15.08842373,9.27e-05,53.2156,135.5466,91.1433,268.9666,2.49e-05,1.09e-06,0.0,0 STARLINK-4673,1 53589U 22104B   23146.37800605  .00000109  00000-0  24900-4 0  9993,2 53589  53.2156 135.5466 0000927  91.1433 268.9666 15.08842373 42216,6917.873,95.437,540.379,539.097,0.0
53589.0,STARLINK-4673,PAYLOAD,2023-05-27 04:08:59,15.08811564,0.0001026,53.2158,131.978,38.45,321.6565,-0.00019732,-3.424e-05,0.0,0 STARLINK-4673,1 53589U 22104B   23147.17291300 -.00003424  00000-0 -19732-3 0  9999,2 53589  53.2158 131.9780 0001026  38.4500 321.6565 15.08811564 41310,6917.967,95.439,540.542,539.123,0.0
53589.0,STARLINK-4673,PAYLOAD,2023-05-27 08:55:11,15.08786893,7.35e-05,53.2153,131.0868,93.7231,266.3845,-0.00040013,-6.641e-05,0.0,0 STARLINK-4673,1 53589U 22104B   23147.37165805 -.00006641  00000-0 -40013-3 0  9991,2 53589  53.2153 131.0868 0000735  93.7231 266.3845 15.08786893 41349,6918.043,95.441,540.416,539.399,0.0
